CZ-2D R/B               
1 28738U 05024B   26089.02945249  .00055812  00000+0  63732-3 0  9993
2 28738  97.3578 104.9480 0002144 327.7019  32.4108 15.62029255142951
ALOS (DAICHI)           
1 28931U 06002A   26089.12977679  .00001724  00000+0  29664-3 0  9997
2 28931  98.1251  44.9879 0000903 109.6139 250.5164 14.69873006 76485
H-2A R/B                
1 28932U 06002B   26089.19388115  .00013779  00000+0  67864-3 0  9993
2 28932  98.2445 237.9929 0052453 170.8929 189.3266 15.16879240 97547
RESURS-DK 1             
1 29228U 06021A   26088.96685299  .00002999  00000+0  17618-3 0  9994
2 29228  69.9340 184.5706 0001308  50.0376 310.0905 15.12870937 90594
CZ-4B R/B               
1 29507U 06046C   26089.05723880  .00006922  00000+0  34785-3 0  9995
2 29507  97.5556 133.9100 0032826 194.2544 165.7767 15.17111209 63139
CZ-2C R/B               
1 31114U 07010B   26089.01556418  .00000162  00000+0  93554-4 0  9991
2 31114  98.4000 201.2778 0058118 234.3942 125.1813 14.20253604982603
COSMO-SKYMED 1          
1 31598U 07023A   26089.19015250  .00004586  00000+0  40696-3 0  9996
2 31598  97.8869 280.3897 0001071 102.8205 257.3135 14.96682992 17975
COSMOS 2428             
1 31792U 07029A   26089.20685440 -.00000016  00000+0  16956-4 0  9992
2 31792  70.9431 160.2824 0009702 255.8886 104.1157 14.12948547966994
SL-16 R/B               
1 31793U 07029B   26089.20932319 -.00000017  00000+0  16059-4 0  9998
2 31793  70.9747 129.2526 0002780 277.9697 148.7918 14.14843588968276
KORONAS-FOTON           
1 33504U 09003A   26088.21245497  .00019600  00000+0  43009-3 0  9999
2 33504  82.4275 255.5703 0011767  86.4859 273.7734 15.43844729948757
CZ-2C R/B               
1 37731U 11030B   26089.13802387  .00001823  00000+0  23550-3 0  9994
2 37731  97.8579  45.9974 0051062 284.3585  86.0812 14.81293988793125
H-2A R/B                
1 38341U 12025E   26089.13903881  .00004241  00000+0  38405-3 0  9990
2 38341  98.4764  57.8288 0042796 245.1796 114.4968 14.95313710751278
SHIJIAN-16 (SJ-16)      
1 39358U 13057A   26089.20938476  .00001858  00000+0  18377-3 0  9998
2 39358  74.9725 146.2441 0015277  59.1517 301.1172 14.92426889674562
SL-4 R/B                
1 39679U 14021B   26089.14114099  .00023819  00000+0  50981-3 0  9994
2 39679  51.6054 237.4532 0095266 177.5547 182.5922 15.39903339659427
ALOS-2                  
1 39766U 14029A   26089.21149277  .00003230  00000+0  43944-3 0  9999
2 39766  97.9186 187.5103 0001861 104.8719 255.2698 14.79453796639903
YAOGAN-29               
1 41038U 15069A   26089.23838604  .00000870  00000+0  11370-3 0  9995
2 41038  98.0117 117.7208 0000380 357.8724   2.2488 14.83018306558924
ASTRO-H (HITOMI)        
1 41337U 16012A   26089.05894295  .00004156  00000+0  24277-3 0  9995
2 41337  30.9989 225.0860 0009607 176.7990 183.2710 15.10133250555314
HXMT (HUIYAN)           
1 42758U 17034A   26089.18096946  .00007280  00000+0  36128-3 0  9998
2 42758  43.0133 262.7275 0031703   1.7163 358.3789 15.17721569485650
SAOCOM 1A               
1 43641U 18076A   26089.14868909  .00000857  00000+0  11414-3 0  9993
2 43641  97.8904 277.0327 0001463  85.6565 274.4815 14.82162944404396
H-2A R/B                
1 43682U 18084L   26089.17651748  .00024987  00000+0  57755-3 0  9999
2 43682  98.8704 310.9549 0023634 313.7074  46.2210 15.42219992408938
SAOCOM 1B               
1 46265U 20059A   26089.17993182 -.00000109  00000+0 -71495-5 0  9996
2 46265  97.8897 276.1610 0001497  83.7713 276.3670 14.82155480301784
CSS (TIANHE)            
1 48274U 21035A   26087.97092897  .00015046  00000+0  17362-3 0  9997
2 48274  41.4668  90.7542 0003972  51.5615 308.5580 15.61596075280629
COSMOS 2550             
1 48865U 21056A   26087.49272868 -.00000186  00000+0  18968-6 0  9997
2 48865  67.1421 344.0047 0008440 269.5686  90.4502 15.33828274266348
CZ-2C R/B               
1 52794U 22058K   26087.66300685  .00046065  00000+0  63634-3 0  9996
2 52794  50.1874 220.5877 0041540 282.1630  77.4689 15.55620973213089
CZ-2C R/B               
1 54039U 22132E   26089.11766408  .00052740  00000+0  55882-3 0  9997
2 54039  97.2957  93.0838 0017267  24.2445 335.9622 15.63780019193561
GSLV R/B                
1 54149U 22138AN  26089.17770052  .00003285  00000+0  28227-3 0  9994
2 54149  87.3859 159.5035 0023996  79.2081 281.1850 14.96903287186996
XRISM                   
1 57800U 23137A   26089.17656080  .00007456  00000+0  42079-3 0  9990
2 57800  31.0017 151.1290 0007936 245.1735 114.8078 15.11738683140899
ACS3                    
1 59588U 24077B   26089.08421514  .00029110  00000+0  22827-1 0  9999
2 59588  97.1965  25.6117 0072876  30.3504 330.1850 13.90562322 97033
SZ-21 MODULE            
1 66515U 25246C   26089.05551850  .00049221  00000+0  39517-3 0  9991
2 66515  41.4737  77.8431 0001949 214.4344 145.6372 15.70142049 21279
